{
  "type": "FeatureCollection",
  "features": [
    {
      "type": "Feature",
      "geometry": {
        "type": "Polygon",
        "coordinates": [
          [
            [
              73.93180000000001,
              15.3165
            ],
            [
              73.93911975606498,
              15.3165
            ],
            [
              73.93911975606498,
              15.322097545077748
            ],
            [
              73.93180000000001,
              15.322097545077748
            ],
            [
              73.93180000000001,
              15.3165
            ]
          ]
        ]
      },
      "properties": {
        "id": "BLD-A-00",
        "zone_id": "A",
        "height_m": 15.9,
        "floors": 4,
        "usage": "commercial"
      }
    },
    {
      "type": "Feature",
      "geometry": {
        "type": "Polygon",
        "coordinates": [
          [
            [
              73.93180000000001,
              15.3265
            ],
            [
              73.9400426061697,
              15.3265
            ],
            [
              73.9400426061697,
              15.333765179529689
            ],
            [
              73.93180000000001,
              15.333765179529689
            ],
            [
              73.93180000000001,
              15.3265
            ]
          ]
        ]
      },
      "properties": {
        "id": "BLD-A-01",
        "zone_id": "A",
        "height_m": 20.8,
        "floors": 6,
        "usage": "residential"
      }
    },
    {
      "type": "Feature",
      "geometry": {
        "type": "Polygon",
        "coordinates": [
          [
            [
              73.93180000000001,
              15.336500000000001
            ],
            [
              73.93956259947949,
              15.336500000000001
            ],
            [
              73.93956259947949,
              15.34373691602867
            ],
            [
              73.93180000000001,
              15.34373691602867
            ],
            [
              73.93180000000001,
              15.336500000000001
            ]
          ]
        ]
      },
      "properties": {
        "id": "BLD-A-02",
        "zone_id": "A",
        "height_m": 11.3,
        "floors": 3,
        "usage": "residential"
      }
    },
    {
      "type": "Feature",
      "geometry": {
        "type": "Polygon",
        "coordinates": [
          [
            [
              73.94380000000001,
              15.3165
            ],
            [
              73.94943523526952,
              15.3165
            ],
            [
              73.94943523526952,
              15.323097624994848
            ],
            [
              73.94380000000001,
              15.323097624994848
            ],
            [
              73.94380000000001,
              15.3165
            ]
          ]
        ]
      },
      "properties": {
        "id": "BLD-A-03",
        "zone_id": "A",
        "height_m": 26.0,
        "floors": 7,
        "usage": "commercial"
      }
    },
    {
      "type": "Feature",
      "geometry": {
        "type": "Polygon",
        "coordinates": [
          [
            [
              73.94380000000001,
              15.3265
            ],
            [
              73.95208023447633,
              15.3265
            ],
            [
              73.95208023447633,
              15.33299124664853
            ],
            [
              73.94380000000001,
              15.33299124664853
            ],
            [
              73.94380000000001,
              15.3265
            ]
          ]
        ]
      },
      "properties": {
        "id": "BLD-A-04",
        "zone_id": "A",
        "height_m": 24.8,
        "floors": 7,
        "usage": "commercial"
      }
    },
    {
      "type": "Feature",
      "geometry": {
        "type": "Polygon",
        "coordinates": [
          [
            [
              73.94380000000001,
              15.336500000000001
            ],
            [
              73.9498163827305,
              15.336500000000001
            ],
            [
              73.9498163827305,
              15.343555538795451
            ],
            [
              73.94380000000001,
              15.343555538795451
            ],
            [
              73.94380000000001,
              15.336500000000001
            ]
          ]
        ]
      },
      "properties": {
        "id": "BLD-A-05",
        "zone_id": "A",
        "height_m": 31.2,
        "floors": 9,
        "usage": "residential"
      }
    },
    {
      "type": "Feature",
      "geometry": {
        "type": "Polygon",
        "coordinates": [
          [
            [
              73.9558,
              15.3165
            ],
            [
              73.9634980609081,
              15.3165
            ],
            [
              73.9634980609081,
              15.323908457270681
            ],
            [
              73.9558,
              15.323908457270681
            ],
            [
              73.9558,
              15.3165
            ]
          ]
        ]
      },
      "properties": {
        "id": "BLD-A-06",
        "zone_id": "A",
        "height_m": 6.7,
        "floors": 2,
        "usage": "residential"
      }
    },
    {
      "type": "Feature",
      "geometry": {
        "type": "Polygon",
        "coordinates": [
          [
            [
              73.9558,
              15.3265
            ],
            [
              73.96139379549348,
              15.3265
            ],
            [
              73.96139379549348,
              15.33105142155964
            ],
            [
              73.9558,
              15.33105142155964
            ],
            [
              73.9558,
              15.3265
            ]
          ]
        ]
      },
      "properties": {
        "id": "BLD-A-07",
        "zone_id": "A",
        "height_m": 16.8,
        "floors": 5,
        "usage": "commercial"
      }
    },
    {
      "type": "Feature",
      "geometry": {
        "type": "Polygon",
        "coordinates": [
          [
            [
              73.9558,
              15.336500000000001
            ],
            [
              73.96389680081977,
              15.336500000000001
            ],
            [
              73.96389680081977,
              15.34399896414872
            ],
            [
              73.9558,
              15.34399896414872
            ],
            [
              73.9558,
              15.336500000000001
            ]
          ]
        ]
      },
      "properties": {
        "id": "BLD-A-08",
        "zone_id": "A",
        "height_m": 22.4,
        "floors": 7,
        "usage": "residential"
      }
    },
    {
      "type": "Feature",
      "geometry": {
        "type": "Polygon",
        "coordinates": [
          [
            [
              73.93180000000001,
              15.2846
            ],
            [
              73.93925959206854,
              15.2846
            ],
            [
              73.93925959206854,
              15.290132176984539
            ],
            [
              73.93180000000001,
              15.290132176984539
            ],
            [
              73.93180000000001,
              15.2846
            ]
          ]
        ]
      },
      "properties": {
        "id": "BLD-B-09",
        "zone_id": "B",
        "height_m": 9.5,
        "floors": 2,
        "usage": "commercial"
      }
    },
    {
      "type": "Feature",
      "geometry": {
        "type": "Polygon",
        "coordinates": [
          [
            [
              73.93180000000001,
              15.295266666666667
            ],
            [
              73.93830627552163,
              15.295266666666667
            ],
            [
              73.93830627552163,
              15.302919178483016
            ],
            [
              73.93180000000001,
              15.302919178483016
            ],
            [
              73.93180000000001,
              15.295266666666667
            ]
          ]
        ]
      },
      "properties": {
        "id": "BLD-B-10",
        "zone_id": "B",
        "height_m": 14.9,
        "floors": 4,
        "usage": "commercial"
      }
    },
    {
      "type": "Feature",
      "geometry": {
        "type": "Polygon",
        "coordinates": [
          [
            [
              73.93180000000001,
              15.305933333333332
            ],
            [
              73.93958549495476,
              15.305933333333332
            ],
            [
              73.93958549495476,
              15.313121697612475
            ],
            [
              73.93180000000001,
              15.313121697612475
            ],
            [
              73.93180000000001,
              15.305933333333332
            ]
          ]
        ]
      },
      "properties": {
        "id": "BLD-B-11",
        "zone_id": "B",
        "height_m": 32.7,
        "floors": 9,
        "usage": "residential"
      }
    },
    {
      "type": "Feature",
      "geometry": {
        "type": "Polygon",
        "coordinates": [
          [
            [
              73.94380000000001,
              15.2846
            ],
            [
              73.95095531441237,
              15.2846
            ],
            [
              73.95095531441237,
              15.291806979171136
            ],
            [
              73.94380000000001,
              15.291806979171136
            ],
            [
              73.94380000000001,
              15.2846
            ]
          ]
        ]
      },
      "properties": {
        "id": "BLD-B-12",
        "zone_id": "B",
        "height_m": 25.3,
        "floors": 7,
        "usage": "commercial"
      }
    },
    {
      "type": "Feature",
      "geometry": {
        "type": "Polygon",
        "coordinates": [
          [
            [
              73.94380000000001,
              15.295266666666667
            ],
            [
              73.95014240575314,
              15.295266666666667
            ],
            [
              73.95014240575314,
              15.302334686679773
            ],
            [
              73.94380000000001,
              15.302334686679773
            ],
            [
              73.94380000000001,
              15.295266666666667
            ]
          ]
        ]
      },
      "properties": {
        "id": "BLD-B-13",
        "zone_id": "B",
        "height_m": 10.0,
        "floors": 2,
        "usage": "residential"
      }
    },
    {
      "type": "Feature",
      "geometry": {
        "type": "Polygon",
        "coordinates": [
          [
            [
              73.94380000000001,
              15.305933333333332
            ],
            [
              73.94989071577179,
              15.305933333333332
            ],
            [
              73.94989071577179,
              15.313781866380541
            ],
            [
              73.94380000000001,
              15.313781866380541
            ],
            [
              73.94380000000001,
              15.305933333333332
            ]
          ]
        ]
      },
      "properties": {
        "id": "BLD-B-14",
        "zone_id": "B",
        "height_m": 22.7,
        "floors": 6,
        "usage": "commercial"
      }
    },
    {
      "type": "Feature",
      "geometry": {
        "type": "Polygon",
        "coordinates": [
          [
            [
              73.9558,
              15.295266666666667
            ],
            [
              73.96378108192661,
              15.295266666666667
            ],
            [
              73.96378108192661,
              15.302968160452787
            ],
            [
              73.9558,
              15.302968160452787
            ],
            [
              73.9558,
              15.295266666666667
            ]
          ]
        ]
      },
      "properties": {
        "id": "BLD-B-15",
        "zone_id": "B",
        "height_m": 8.1,
        "floors": 2,
        "usage": "commercial"
      }
    },
    {
      "type": "Feature",
      "geometry": {
        "type": "Polygon",
        "coordinates": [
          [
            [
              73.9558,
              15.305933333333332
            ],
            [
              73.96140144035132,
              15.305933333333332
            ],
            [
              73.96140144035132,
              15.312209552113547
            ],
            [
              73.9558,
              15.312209552113547
            ],
            [
              73.9558,
              15.305933333333332
            ]
          ]
        ]
      },
      "properties": {
        "id": "BLD-B-16",
        "zone_id": "B",
        "height_m": 25.9,
        "floors": 8,
        "usage": "residential"
      }
    },
    {
      "type": "Feature",
      "geometry": {
        "type": "Polygon",
        "coordinates": [
          [
            [
              73.93180000000001,
              15.2526
            ],
            [
              73.9395174785209,
              15.2526
            ],
            [
              73.9395174785209,
              15.258243725269255
            ],
            [
              73.93180000000001,
              15.258243725269255
            ],
            [
              73.93180000000001,
              15.2526
            ]
          ]
        ]
      },
      "properties": {
        "id": "BLD-C-17",
        "zone_id": "C",
        "height_m": 16.8,
        "floors": 5,
        "usage": "industrial"
      }
    },
    {
      "type": "Feature",
      "geometry": {
        "type": "Polygon",
        "coordinates": [
          [
            [
              73.93180000000001,
              15.263266666666667
            ],
            [
              73.93874654352062,
              15.263266666666667
            ],
            [
              73.93874654352062,
              15.26887584797922
            ],
            [
              73.93180000000001,
              15.26887584797922
            ],
            [
              73.93180000000001,
              15.263266666666667
            ]
          ]
        ]
      },
      "properties": {
        "id": "BLD-C-18",
        "zone_id": "C",
        "height_m": 18.8,
        "floors": 5,
        "usage": "industrial"
      }
    },
    {
      "type": "Feature",
      "geometry": {
        "type": "Polygon",
        "coordinates": [
          [
            [
              73.93180000000001,
              15.273933333333332
            ],
            [
              73.93790031591719,
              15.273933333333332
            ],
            [
              73.93790031591719,
              15.281174068600915
            ],
            [
              73.93180000000001,
              15.281174068600915
            ],
            [
              73.93180000000001,
              15.273933333333332
            ]
          ]
        ]
      },
      "properties": {
        "id": "BLD-C-19",
        "zone_id": "C",
        "height_m": 38.9,
        "floors": 11,
        "usage": "residential"
      }
    },
    {
      "type": "Feature",
      "geometry": {
        "type": "Polygon",
        "coordinates": [
          [
            [
              73.94380000000001,
              15.2526
            ],
            [
              73.95143911333466,
              15.2526
            ],
            [
              73.95143911333466,
              15.259413365395584
            ],
            [
              73.94380000000001,
              15.259413365395584
            ],
            [
              73.94380000000001,
              15.2526
            ]
          ]
        ]
      },
      "properties": {
        "id": "BLD-C-20",
        "zone_id": "C",
        "height_m": 6.5,
        "floors": 2,
        "usage": "residential"
      }
    },
    {
      "type": "Feature",
      "geometry": {
        "type": "Polygon",
        "coordinates": [
          [
            [
              73.94380000000001,
              15.263266666666667
            ],
            [
              73.95077493745913,
              15.263266666666667
            ],
            [
              73.95077493745913,
              15.27050903693699
            ],
            [
              73.94380000000001,
              15.27050903693699
            ],
            [
              73.94380000000001,
              15.263266666666667
            ]
          ]
        ]
      },
      "properties": {
        "id": "BLD-C-21",
        "zone_id": "C",
        "height_m": 33.3,
        "floors": 10,
        "usage": "industrial"
      }
    },
    {
      "type": "Feature",
      "geometry": {
        "type": "Polygon",
        "coordinates": [
          [
            [
              73.94380000000001,
              15.273933333333332
            ],
            [
              73.95001034123378,
              15.273933333333332
            ],
            [
              73.95001034123378,
              15.279710222511891
            ],
            [
              73.94380000000001,
              15.279710222511891
            ],
            [
              73.94380000000001,
              15.273933333333332
            ]
          ]
        ]
      },
      "properties": {
        "id": "BLD-C-22",
        "zone_id": "C",
        "height_m": 31.1,
        "floors": 9,
        "usage": "residential"
      }
    },
    {
      "type": "Feature",
      "geometry": {
        "type": "Polygon",
        "coordinates": [
          [
            [
              73.9558,
              15.2526
            ],
            [
              73.96344519599789,
              15.2526
            ],
            [
              73.96344519599789,
              15.258282024926247
            ],
            [
              73.9558,
              15.258282024926247
            ],
            [
              73.9558,
              15.2526
            ]
          ]
        ]
      },
      "properties": {
        "id": "BLD-C-23",
        "zone_id": "C",
        "height_m": 17.5,
        "floors": 5,
        "usage": "residential"
      }
    },
    {
      "type": "Feature",
      "geometry": {
        "type": "Polygon",
        "coordinates": [
          [
            [
              73.9558,
              15.273933333333332
            ],
            [
              73.96243299383751,
              15.273933333333332
            ],
            [
              73.96243299383751,
              15.281425368816018
            ],
            [
              73.9558,
              15.281425368816018
            ],
            [
              73.9558,
              15.273933333333332
            ]
          ]
        ]
      },
      "properties": {
        "id": "BLD-C-24",
        "zone_id": "C",
        "height_m": 21.2,
        "floors": 6,
        "usage": "residential"
      }
    },
    {
      "type": "Feature",
      "geometry": {
        "type": "Polygon",
        "coordinates": [
          [
            [
              73.9678,
              15.3165
            ],
            [
              73.97678733096497,
              15.3165
            ],
            [
              73.97678733096497,
              15.321111438517097
            ],
            [
              73.9678,
              15.321111438517097
            ],
            [
              73.9678,
              15.3165
            ]
          ]
        ]
      },
      "properties": {
        "id": "BLD-D-25",
        "zone_id": "D",
        "height_m": 34.3,
        "floors": 10,
        "usage": "residential"
      }
    },
    {
      "type": "Feature",
      "geometry": {
        "type": "Polygon",
        "coordinates": [
          [
            [
              73.9678,
              15.3265
            ],
            [
              73.97360926211775,
              15.3265
            ],
            [
              73.97360926211775,
              15.331729077144741
            ],
            [
              73.9678,
              15.331729077144741
            ],
            [
              73.9678,
              15.3265
            ]
          ]
        ]
      },
      "properties": {
        "id": "BLD-D-26",
        "zone_id": "D",
        "height_m": 8.4,
        "floors": 2,
        "usage": "residential"
      }
    },
    {
      "type": "Feature",
      "geometry": {
        "type": "Polygon",
        "coordinates": [
          [
            [
              73.9678,
              15.336500000000001
            ],
            [
              73.97512588584111,
              15.336500000000001
            ],
            [
              73.97512588584111,
              15.3437867938491
            ],
            [
              73.9678,
              15.3437867938491
            ],
            [
              73.9678,
              15.336500000000001
            ]
          ]
        ]
      },
      "properties": {
        "id": "BLD-D-27",
        "zone_id": "D",
        "height_m": 39.1,
        "floors": 11,
        "usage": "residential"
      }
    },
    {
      "type": "Feature",
      "geometry": {
        "type": "Polygon",
        "coordinates": [
          [
            [
              73.9798,
              15.3165
            ],
            [
              73.98862092454544,
              15.3165
            ],
            [
              73.98862092454544,
              15.322517465556494
            ],
            [
              73.9798,
              15.322517465556494
            ],
            [
              73.9798,
              15.3165
            ]
          ]
        ]
      },
      "properties": {
        "id": "BLD-D-28",
        "zone_id": "D",
        "height_m": 37.9,
        "floors": 11,
        "usage": "residential"
      }
    },
    {
      "type": "Feature",
      "geometry": {
        "type": "Polygon",
        "coordinates": [
          [
            [
              73.9798,
              15.3265
            ],
            [
              73.98698655811747,
              15.3265
            ],
            [
              73.98698655811747,
              15.33104753163044
            ],
            [
              73.9798,
              15.33104753163044
            ],
            [
              73.9798,
              15.3265
            ]
          ]
        ]
      },
      "properties": {
        "id": "BLD-D-29",
        "zone_id": "D",
        "height_m": 14.7,
        "floors": 4,
        "usage": "residential"
      }
    },
    {
      "type": "Feature",
      "geometry": {
        "type": "Polygon",
        "coordinates": [
          [
            [
              73.9798,
              15.336500000000001
            ],
            [
              73.98753749306081,
              15.336500000000001
            ],
            [
              73.98753749306081,
              15.342845805261037
            ],
            [
              73.9798,
              15.342845805261037
            ],
            [
              73.9798,
              15.336500000000001
            ]
          ]
        ]
      },
      "properties": {
        "id": "BLD-D-30",
        "zone_id": "D",
        "height_m": 31.7,
        "floors": 9,
        "usage": "residential"
      }
    },
    {
      "type": "Feature",
      "geometry": {
        "type": "Polygon",
        "coordinates": [
          [
            [
              73.9918,
              15.3265
            ],
            [
              73.99805337421526,
              15.3265
            ],
            [
              73.99805337421526,
              15.331668468102391
            ],
            [
              73.9918,
              15.331668468102391
            ],
            [
              73.9918,
              15.3265
            ]
          ]
        ]
      },
      "properties": {
        "id": "BLD-D-31",
        "zone_id": "D",
        "height_m": 9.2,
        "floors": 2,
        "usage": "commercial"
      }
    },
    {
      "type": "Feature",
      "geometry": {
        "type": "Polygon",
        "coordinates": [
          [
            [
              73.9918,
              15.336500000000001
            ],
            [
              74.00009866906004,
              15.336500000000001
            ],
            [
              74.00009866906004,
              15.343019687011248
            ],
            [
              73.9918,
              15.343019687011248
            ],
            [
              73.9918,
              15.336500000000001
            ]
          ]
        ]
      },
      "properties": {
        "id": "BLD-D-32",
        "zone_id": "D",
        "height_m": 22.5,
        "floors": 7,
        "usage": "commercial"
      }
    },
    {
      "type": "Feature",
      "geometry": {
        "type": "Polygon",
        "coordinates": [
          [
            [
              73.9678,
              15.2846
            ],
            [
              73.97546884482777,
              15.2846
            ],
            [
              73.97546884482777,
              15.291911953524824
            ],
            [
              73.9678,
              15.291911953524824
            ],
            [
              73.9678,
              15.2846
            ]
          ]
        ]
      },
      "properties": {
        "id": "BLD-E-33",
        "zone_id": "E",
        "height_m": 12.5,
        "floors": 3,
        "usage": "industrial"
      }
    },
    {
      "type": "Feature",
      "geometry": {
        "type": "Polygon",
        "coordinates": [
          [
            [
              73.9678,
              15.295266666666667
            ],
            [
              73.97629198428018,
              15.295266666666667
            ],
            [
              73.97629198428018,
              15.300568820222638
            ],
            [
              73.9678,
              15.300568820222638
            ],
            [
              73.9678,
              15.295266666666667
            ]
          ]
        ]
      },
      "properties": {
        "id": "BLD-E-34",
        "zone_id": "E",
        "height_m": 16.4,
        "floors": 5,
        "usage": "residential"
      }
    },
    {
      "type": "Feature",
      "geometry": {
        "type": "Polygon",
        "coordinates": [
          [
            [
              73.9678,
              15.305933333333332
            ],
            [
              73.97648330901754,
              15.305933333333332
            ],
            [
              73.97648330901754,
              15.312581254695152
            ],
            [
              73.9678,
              15.312581254695152
            ],
            [
              73.9678,
              15.305933333333332
            ]
          ]
        ]
      },
      "properties": {
        "id": "BLD-E-35",
        "zone_id": "E",
        "height_m": 19.7,
        "floors": 5,
        "usage": "residential"
      }
    },
    {
      "type": "Feature",
      "geometry": {
        "type": "Polygon",
        "coordinates": [
          [
            [
              73.9798,
              15.2846
            ],
            [
              73.9876500528219,
              15.2846
            ],
            [
              73.9876500528219,
              15.290730241735655
            ],
            [
              73.9798,
              15.290730241735655
            ],
            [
              73.9798,
              15.2846
            ]
          ]
        ]
      },
      "properties": {
        "id": "BLD-E-36",
        "zone_id": "E",
        "height_m": 30.7,
        "floors": 9,
        "usage": "residential"
      }
    },
    {
      "type": "Feature",
      "geometry": {
        "type": "Polygon",
        "coordinates": [
          [
            [
              73.9918,
              15.2846
            ],
            [
              73.99769016461447,
              15.2846
            ],
            [
              73.99769016461447,
              15.290273670639522
            ],
            [
              73.9918,
              15.290273670639522
            ],
            [
              73.9918,
              15.2846
            ]
          ]
        ]
      },
      "properties": {
        "id": "BLD-E-37",
        "zone_id": "E",
        "height_m": 25.7,
        "floors": 8,
        "usage": "commercial"
      }
    },
    {
      "type": "Feature",
      "geometry": {
        "type": "Polygon",
        "coordinates": [
          [
            [
              73.9918,
              15.295266666666667
            ],
            [
              73.99808035322289,
              15.295266666666667
            ],
            [
              73.99808035322289,
              15.301794280152723
            ],
            [
              73.9918,
              15.301794280152723
            ],
            [
              73.9918,
              15.295266666666667
            ]
          ]
        ]
      },
      "properties": {
        "id": "BLD-E-38",
        "zone_id": "E",
        "height_m": 13.0,
        "floors": 3,
        "usage": "industrial"
      }
    },
    {
      "type": "Feature",
      "geometry": {
        "type": "Polygon",
        "coordinates": [
          [
            [
              73.9918,
              15.305933333333332
            ],
            [
              73.99907941217738,
              15.305933333333332
            ],
            [
              73.99907941217738,
              15.313666426482685
            ],
            [
              73.9918,
              15.313666426482685
            ],
            [
              73.9918,
              15.305933333333332
            ]
          ]
        ]
      },
      "properties": {
        "id": "BLD-E-39",
        "zone_id": "E",
        "height_m": 15.6,
        "floors": 4,
        "usage": "residential"
      }
    }
  ]
}