{
  "type": "FeatureCollection",
  "features": [],
  "layers": {
    "zones": {
      "type": "FeatureCollection",
      "features": [
        {
          "type": "Feature",
          "geometry": {
            "type": "Polygon",
            "coordinates": [
              [
                [
                  74.8418,
                  12.9037
                ],
                [
                  74.8568,
                  12.9037
                ],
                [
                  74.8568,
                  12.9187
                ],
                [
                  74.8418,
                  12.9187
                ],
                [
                  74.8418,
                  12.9037
                ]
              ]
            ]
          },
          "properties": {
            "id": "A",
            "name": "Zone A \u00b7 Mangaluru Waterfront",
            "elevation_m": 12.4,
            "drainage_capacity": 0.72,
            "historical_flood_freq": 0.45,
            "imperviousness": 0.68,
            "slope": 2.1,
            "population": 28000,
            "vulnerability": 0.62
          }
        },
        {
          "type": "Feature",
          "geometry": {
            "type": "Polygon",
            "coordinates": [
              [
                [
                  74.8598,
                  12.9037
                ],
                [
                  74.8778,
                  12.9037
                ],
                [
                  74.8778,
                  12.9187
                ],
                [
                  74.8598,
                  12.9187
                ],
                [
                  74.8598,
                  12.9037
                ]
              ]
            ]
          },
          "properties": {
            "id": "B",
            "name": "Zone B \u00b7 Mangaluru Lowlands",
            "elevation_m": 9.3,
            "drainage_capacity": 0.58,
            "historical_flood_freq": 0.45,
            "imperviousness": 0.68,
            "slope": 2.1,
            "population": 28000,
            "vulnerability": 0.62
          }
        },
        {
          "type": "Feature",
          "geometry": {
            "type": "Polygon",
            "coordinates": [
              [
                [
                  74.8418,
                  12.9207
                ],
                [
                  74.8568,
                  12.9207
                ],
                [
                  74.8568,
                  12.9387
                ],
                [
                  74.8418,
                  12.9387
                ],
                [
                  74.8418,
                  12.9207
                ]
              ]
            ]
          },
          "properties": {
            "id": "C",
            "name": "Zone C \u00b7 Mangaluru Port & Basin",
            "elevation_m": 15.5,
            "drainage_capacity": 0.68,
            "historical_flood_freq": 0.45,
            "imperviousness": 0.68,
            "slope": 2.1,
            "population": 28000,
            "vulnerability": 0.62
          }
        },
        {
          "type": "Feature",
          "geometry": {
            "type": "Polygon",
            "coordinates": [
              [
                [
                  74.8598,
                  12.9207
                ],
                [
                  74.8778,
                  12.9207
                ],
                [
                  74.8778,
                  12.9387
                ],
                [
                  74.8598,
                  12.9387
                ],
                [
                  74.8598,
                  12.9207
                ]
              ]
            ]
          },
          "properties": {
            "id": "D",
            "name": "Zone D \u00b7 Mangaluru Ridge / Heights",
            "elevation_m": 55.8,
            "drainage_capacity": 0.88,
            "historical_flood_freq": 0.45,
            "imperviousness": 0.68,
            "slope": 2.1,
            "population": 28000,
            "vulnerability": 0.62
          }
        },
        {
          "type": "Feature",
          "geometry": {
            "type": "Polygon",
            "coordinates": [
              [
                [
                  74.8798,
                  12.9087
                ],
                [
                  74.8978,
                  12.9087
                ],
                [
                  74.8978,
                  12.9337
                ],
                [
                  74.8798,
                  12.9337
                ],
                [
                  74.8798,
                  12.9087
                ]
              ]
            ]
          },
          "properties": {
            "id": "E",
            "name": "Zone E \u00b7 Mangaluru Urban Hinterland",
            "elevation_m": 40.3,
            "drainage_capacity": 0.81,
            "historical_flood_freq": 0.45,
            "imperviousness": 0.68,
            "slope": 2.1,
            "population": 28000,
            "vulnerability": 0.62
          }
        }
      ]
    },
    "roads": {
      "type": "FeatureCollection",
      "features": [
        {
          "type": "Feature",
          "geometry": {
            "type": "LineString",
            "coordinates": [
              [
                74.8498,
                12.9107
              ],
              [
                74.8688,
                12.9107
              ]
            ]
          },
          "properties": {
            "id": "RD-01",
            "name": "Mangaluru Coastal Arterial",
            "elevation_m": 12.4,
            "critical": true
          }
        },
        {
          "type": "Feature",
          "geometry": {
            "type": "LineString",
            "coordinates": [
              [
                74.8498,
                12.9287
              ],
              [
                74.8688,
                12.9287
              ]
            ]
          },
          "properties": {
            "id": "RD-02",
            "name": "Mangaluru North Link",
            "elevation_m": 27.9,
            "critical": true
          }
        },
        {
          "type": "Feature",
          "geometry": {
            "type": "LineString",
            "coordinates": [
              [
                74.8498,
                12.9107
              ],
              [
                74.8498,
                12.9287
              ]
            ]
          },
          "properties": {
            "id": "RD-03",
            "name": "Mangaluru Harbor Way",
            "elevation_m": 15.5,
            "critical": false
          }
        },
        {
          "type": "Feature",
          "geometry": {
            "type": "LineString",
            "coordinates": [
              [
                74.8688,
                12.9107
              ],
              [
                74.8848,
                12.9237
              ]
            ]
          },
          "properties": {
            "id": "RD-04",
            "name": "Mangaluru Inland Highway Egress",
            "elevation_m": 49.6,
            "critical": true
          }
        }
      ]
    },
    "buildings": {
      "type": "FeatureCollection",
      "features": [
        {
          "type": "Feature",
          "geometry": {
            "type": "Polygon",
            "coordinates": [
              [
                [
                  74.84255,
                  12.90445
                ],
                [
                  74.84503,
                  12.90445
                ],
                [
                  74.84503,
                  12.90785
                ],
                [
                  74.84255,
                  12.90785
                ],
                [
                  74.84255,
                  12.90445
                ]
              ]
            ]
          },
          "properties": {
            "id": "BLD-A-001",
            "zone_id": "A",
            "height_m": 18.6,
            "floors": 5,
            "usage": "industrial"
          }
        },
        {
          "type": "Feature",
          "geometry": {
            "type": "Polygon",
            "coordinates": [
              [
                [
                  74.84755,
                  12.90445
                ],
                [
                  74.85042,
                  12.90445
                ],
                [
                  74.85042,
                  12.90782
                ],
                [
                  74.84755,
                  12.90782
                ],
                [
                  74.84755,
                  12.90445
                ]
              ]
            ]
          },
          "properties": {
            "id": "BLD-A-002",
            "zone_id": "A",
            "height_m": 10.3,
            "floors": 3,
            "usage": "residential"
          }
        },
        {
          "type": "Feature",
          "geometry": {
            "type": "Polygon",
            "coordinates": [
              [
                [
                  74.84755,
                  12.90945
                ],
                [
                  74.85032,
                  12.90945
                ],
                [
                  74.85032,
                  12.9118
                ],
                [
                  74.84755,
                  12.9118
                ],
                [
                  74.84755,
                  12.90945
                ]
              ]
            ]
          },
          "properties": {
            "id": "BLD-A-003",
            "zone_id": "A",
            "height_m": 26.6,
            "floors": 8,
            "usage": "commercial"
          }
        },
        {
          "type": "Feature",
          "geometry": {
            "type": "Polygon",
            "coordinates": [
              [
                [
                  74.85255,
                  12.90445
                ],
                [
                  74.85483,
                  12.90445
                ],
                [
                  74.85483,
                  12.90774
                ],
                [
                  74.85255,
                  12.90774
                ],
                [
                  74.85255,
                  12.90445
                ]
              ]
            ]
          },
          "properties": {
            "id": "BLD-A-004",
            "zone_id": "A",
            "height_m": 28.9,
            "floors": 9,
            "usage": "commercial"
          }
        },
        {
          "type": "Feature",
          "geometry": {
            "type": "Polygon",
            "coordinates": [
              [
                [
                  74.85255,
                  12.90945
                ],
                [
                  74.85577,
                  12.90945
                ],
                [
                  74.85577,
                  12.9126
                ],
                [
                  74.85255,
                  12.9126
                ],
                [
                  74.85255,
                  12.90945
                ]
              ]
            ]
          },
          "properties": {
            "id": "BLD-A-005",
            "zone_id": "A",
            "height_m": 21.1,
            "floors": 6,
            "usage": "residential"
          }
        },
        {
          "type": "Feature",
          "geometry": {
            "type": "Polygon",
            "coordinates": [
              [
                [
                  74.85255,
                  12.91445
                ],
                [
                  74.85576,
                  12.91445
                ],
                [
                  74.85576,
                  12.91697
                ],
                [
                  74.85255,
                  12.91697
                ],
                [
                  74.85255,
                  12.91445
                ]
              ]
            ]
          },
          "properties": {
            "id": "BLD-A-006",
            "zone_id": "A",
            "height_m": 18.9,
            "floors": 5,
            "usage": "residential"
          }
        },
        {
          "type": "Feature",
          "geometry": {
            "type": "Polygon",
            "coordinates": [
              [
                [
                  74.8607,
                  12.90445
                ],
                [
                  74.86487,
                  12.90445
                ],
                [
                  74.86487,
                  12.90768
                ],
                [
                  74.8607,
                  12.90768
                ],
                [
                  74.8607,
                  12.90445
                ]
              ]
            ]
          },
          "properties": {
            "id": "BLD-B-007",
            "zone_id": "B",
            "height_m": 26.0,
            "floors": 8,
            "usage": "residential"
          }
        },
        {
          "type": "Feature",
          "geometry": {
            "type": "Polygon",
            "coordinates": [
              [
                [
                  74.8607,
                  12.90945
                ],
                [
                  74.86434,
                  12.90945
                ],
                [
                  74.86434,
                  12.91258
                ],
                [
                  74.8607,
                  12.91258
                ],
                [
                  74.8607,
                  12.90945
                ]
              ]
            ]
          },
          "properties": {
            "id": "BLD-B-008",
            "zone_id": "B",
            "height_m": 7.6,
            "floors": 2,
            "usage": "industrial"
          }
        },
        {
          "type": "Feature",
          "geometry": {
            "type": "Polygon",
            "coordinates": [
              [
                [
                  74.8607,
                  12.91445
                ],
                [
                  74.86475,
                  12.91445
                ],
                [
                  74.86475,
                  12.91682
                ],
                [
                  74.8607,
                  12.91682
                ],
                [
                  74.8607,
                  12.91445
                ]
              ]
            ]
          },
          "properties": {
            "id": "BLD-B-009",
            "zone_id": "B",
            "height_m": 26.6,
            "floors": 8,
            "usage": "residential"
          }
        },
        {
          "type": "Feature",
          "geometry": {
            "type": "Polygon",
            "coordinates": [
              [
                [
                  74.8667,
                  12.90445
                ],
                [
                  74.87009,
                  12.90445
                ],
                [
                  74.87009,
                  12.90777
                ],
                [
                  74.8667,
                  12.90777
                ],
                [
                  74.8667,
                  12.90445
                ]
              ]
            ]
          },
          "properties": {
            "id": "BLD-B-010",
            "zone_id": "B",
            "height_m": 10.4,
            "floors": 3,
            "usage": "industrial"
          }
        },
        {
          "type": "Feature",
          "geometry": {
            "type": "Polygon",
            "coordinates": [
              [
                [
                  74.8667,
                  12.90945
                ],
                [
                  74.86958,
                  12.90945
                ],
                [
                  74.86958,
                  12.91188
                ],
                [
                  74.8667,
                  12.91188
                ],
                [
                  74.8667,
                  12.90945
                ]
              ]
            ]
          },
          "properties": {
            "id": "BLD-B-011",
            "zone_id": "B",
            "height_m": 10.4,
            "floors": 3,
            "usage": "industrial"
          }
        },
        {
          "type": "Feature",
          "geometry": {
            "type": "Polygon",
            "coordinates": [
              [
                [
                  74.8727,
                  12.90445
                ],
                [
                  74.87585,
                  12.90445
                ],
                [
                  74.87585,
                  12.90771
                ],
                [
                  74.8727,
                  12.90771
                ],
                [
                  74.8727,
                  12.90445
                ]
              ]
            ]
          },
          "properties": {
            "id": "BLD-B-012",
            "zone_id": "B",
            "height_m": 18.0,
            "floors": 5,
            "usage": "residential"
          }
        },
        {
          "type": "Feature",
          "geometry": {
            "type": "Polygon",
            "coordinates": [
              [
                [
                  74.8727,
                  12.91445
                ],
                [
                  74.87597,
                  12.91445
                ],
                [
                  74.87597,
                  12.91702
                ],
                [
                  74.8727,
                  12.91702
                ],
                [
                  74.8727,
                  12.91445
                ]
              ]
            ]
          },
          "properties": {
            "id": "BLD-B-013",
            "zone_id": "B",
            "height_m": 26.3,
            "floors": 8,
            "usage": "residential"
          }
        },
        {
          "type": "Feature",
          "geometry": {
            "type": "Polygon",
            "coordinates": [
              [
                [
                  74.84255,
                  12.9216
                ],
                [
                  74.84497,
                  12.9216
                ],
                [
                  74.84497,
                  12.92523
                ],
                [
                  74.84255,
                  12.92523
                ],
                [
                  74.84255,
                  12.9216
                ]
              ]
            ]
          },
          "properties": {
            "id": "BLD-C-014",
            "zone_id": "C",
            "height_m": 25.3,
            "floors": 7,
            "usage": "residential"
          }
        },
        {
          "type": "Feature",
          "geometry": {
            "type": "Polygon",
            "coordinates": [
              [
                [
                  74.84255,
                  12.9276
                ],
                [
                  74.84544,
                  12.9276
                ],
                [
                  74.84544,
                  12.93124
                ],
                [
                  74.84255,
                  12.93124
                ],
                [
                  74.84255,
                  12.9276
                ]
              ]
            ]
          },
          "properties": {
            "id": "BLD-C-015",
            "zone_id": "C",
            "height_m": 15.0,
            "floors": 4,
            "usage": "commercial"
          }
        },
        {
          "type": "Feature",
          "geometry": {
            "type": "Polygon",
            "coordinates": [
              [
                [
                  74.84255,
                  12.9336
                ],
                [
                  74.84561,
                  12.9336
                ],
                [
                  74.84561,
                  12.93651
                ],
                [
                  74.84255,
                  12.93651
                ],
                [
                  74.84255,
                  12.9336
                ]
              ]
            ]
          },
          "properties": {
            "id": "BLD-C-016",
            "zone_id": "C",
            "height_m": 23.9,
            "floors": 7,
            "usage": "industrial"
          }
        },
        {
          "type": "Feature",
          "geometry": {
            "type": "Polygon",
            "coordinates": [
              [
                [
                  74.84755,
                  12.9276
                ],
                [
                  74.8505,
                  12.9276
                ],
                [
                  74.8505,
                  12.93033
                ],
                [
                  74.84755,
                  12.93033
                ],
                [
                  74.84755,
                  12.9276
                ]
              ]
            ]
          },
          "properties": {
            "id": "BLD-C-017",
            "zone_id": "C",
            "height_m": 24.0,
            "floors": 7,
            "usage": "industrial"
          }
        },
        {
          "type": "Feature",
          "geometry": {
            "type": "Polygon",
            "coordinates": [
              [
                [
                  74.84755,
                  12.9336
                ],
                [
                  74.85061,
                  12.9336
                ],
                [
                  74.85061,
                  12.93633
                ],
                [
                  74.84755,
                  12.93633
                ],
                [
                  74.84755,
                  12.9336
                ]
              ]
            ]
          },
          "properties": {
            "id": "BLD-C-018",
            "zone_id": "C",
            "height_m": 24.2,
            "floors": 7,
            "usage": "residential"
          }
        },
        {
          "type": "Feature",
          "geometry": {
            "type": "Polygon",
            "coordinates": [
              [
                [
                  74.85255,
                  12.9276
                ],
                [
                  74.85594,
                  12.9276
                ],
                [
                  74.85594,
                  12.93089
                ],
                [
                  74.85255,
                  12.93089
                ],
                [
                  74.85255,
                  12.9276
                ]
              ]
            ]
          },
          "properties": {
            "id": "BLD-C-019",
            "zone_id": "C",
            "height_m": 12.4,
            "floors": 3,
            "usage": "residential"
          }
        },
        {
          "type": "Feature",
          "geometry": {
            "type": "Polygon",
            "coordinates": [
              [
                [
                  74.85255,
                  12.9336
                ],
                [
                  74.85564,
                  12.9336
                ],
                [
                  74.85564,
                  12.9371
                ],
                [
                  74.85255,
                  12.9371
                ],
                [
                  74.85255,
                  12.9336
                ]
              ]
            ]
          },
          "properties": {
            "id": "BLD-C-020",
            "zone_id": "C",
            "height_m": 16.8,
            "floors": 5,
            "usage": "residential"
          }
        },
        {
          "type": "Feature",
          "geometry": {
            "type": "Polygon",
            "coordinates": [
              [
                [
                  74.8607,
                  12.9216
                ],
                [
                  74.86378,
                  12.9216
                ],
                [
                  74.86378,
                  12.92506
                ],
                [
                  74.8607,
                  12.92506
                ],
                [
                  74.8607,
                  12.9216
                ]
              ]
            ]
          },
          "properties": {
            "id": "BLD-D-021",
            "zone_id": "D",
            "height_m": 11.2,
            "floors": 3,
            "usage": "residential"
          }
        },
        {
          "type": "Feature",
          "geometry": {
            "type": "Polygon",
            "coordinates": [
              [
                [
                  74.8607,
                  12.9336
                ],
                [
                  74.86447,
                  12.9336
                ],
                [
                  74.86447,
                  12.93722
                ],
                [
                  74.8607,
                  12.93722
                ],
                [
                  74.8607,
                  12.9336
                ]
              ]
            ]
          },
          "properties": {
            "id": "BLD-D-022",
            "zone_id": "D",
            "height_m": 26.9,
            "floors": 8,
            "usage": "industrial"
          }
        },
        {
          "type": "Feature",
          "geometry": {
            "type": "Polygon",
            "coordinates": [
              [
                [
                  74.8667,
                  12.9216
                ],
                [
                  74.87087,
                  12.9216
                ],
                [
                  74.87087,
                  12.92522
                ],
                [
                  74.8667,
                  12.92522
                ],
                [
                  74.8667,
                  12.9216
                ]
              ]
            ]
          },
          "properties": {
            "id": "BLD-D-023",
            "zone_id": "D",
            "height_m": 11.5,
            "floors": 3,
            "usage": "residential"
          }
        },
        {
          "type": "Feature",
          "geometry": {
            "type": "Polygon",
            "coordinates": [
              [
                [
                  74.8667,
                  12.9276
                ],
                [
                  74.86993,
                  12.9276
                ],
                [
                  74.86993,
                  12.93157
                ],
                [
                  74.8667,
                  12.93157
                ],
                [
                  74.8667,
                  12.9276
                ]
              ]
            ]
          },
          "properties": {
            "id": "BLD-D-024",
            "zone_id": "D",
            "height_m": 7.5,
            "floors": 2,
            "usage": "residential"
          }
        },
        {
          "type": "Feature",
          "geometry": {
            "type": "Polygon",
            "coordinates": [
              [
                [
                  74.8727,
                  12.9216
                ],
                [
                  74.87684,
                  12.9216
                ],
                [
                  74.87684,
                  12.92453
                ],
                [
                  74.8727,
                  12.92453
                ],
                [
                  74.8727,
                  12.9216
                ]
              ]
            ]
          },
          "properties": {
            "id": "BLD-D-025",
            "zone_id": "D",
            "height_m": 12.0,
            "floors": 3,
            "usage": "industrial"
          }
        },
        {
          "type": "Feature",
          "geometry": {
            "type": "Polygon",
            "coordinates": [
              [
                [
                  74.8807,
                  12.90995
                ],
                [
                  74.88445,
                  12.90995
                ],
                [
                  74.88445,
                  12.91538
                ],
                [
                  74.8807,
                  12.91538
                ],
                [
                  74.8807,
                  12.90995
                ]
              ]
            ]
          },
          "properties": {
            "id": "BLD-E-026",
            "zone_id": "E",
            "height_m": 23.4,
            "floors": 7,
            "usage": "residential"
          }
        },
        {
          "type": "Feature",
          "geometry": {
            "type": "Polygon",
            "coordinates": [
              [
                [
                  74.8807,
                  12.91828
                ],
                [
                  74.88366,
                  12.91828
                ],
                [
                  74.88366,
                  12.92402
                ],
                [
                  74.8807,
                  12.92402
                ],
                [
                  74.8807,
                  12.91828
                ]
              ]
            ]
          },
          "properties": {
            "id": "BLD-E-027",
            "zone_id": "E",
            "height_m": 27.1,
            "floors": 8,
            "usage": "commercial"
          }
        },
        {
          "type": "Feature",
          "geometry": {
            "type": "Polygon",
            "coordinates": [
              [
                [
                  74.8807,
                  12.92662
                ],
                [
                  74.88452,
                  12.92662
                ],
                [
                  74.88452,
                  12.93231
                ],
                [
                  74.8807,
                  12.93231
                ],
                [
                  74.8807,
                  12.92662
                ]
              ]
            ]
          },
          "properties": {
            "id": "BLD-E-028",
            "zone_id": "E",
            "height_m": 21.9,
            "floors": 6,
            "usage": "industrial"
          }
        },
        {
          "type": "Feature",
          "geometry": {
            "type": "Polygon",
            "coordinates": [
              [
                [
                  74.8867,
                  12.90995
                ],
                [
                  74.89033,
                  12.90995
                ],
                [
                  74.89033,
                  12.9142
                ],
                [
                  74.8867,
                  12.9142
                ],
                [
                  74.8867,
                  12.90995
                ]
              ]
            ]
          },
          "properties": {
            "id": "BLD-E-029",
            "zone_id": "E",
            "height_m": 12.3,
            "floors": 3,
            "usage": "residential"
          }
        },
        {
          "type": "Feature",
          "geometry": {
            "type": "Polygon",
            "coordinates": [
              [
                [
                  74.8867,
                  12.91828
                ],
                [
                  74.89086,
                  12.91828
                ],
                [
                  74.89086,
                  12.92214
                ],
                [
                  74.8867,
                  12.92214
                ],
                [
                  74.8867,
                  12.91828
                ]
              ]
            ]
          },
          "properties": {
            "id": "BLD-E-030",
            "zone_id": "E",
            "height_m": 15.4,
            "floors": 4,
            "usage": "commercial"
          }
        },
        {
          "type": "Feature",
          "geometry": {
            "type": "Polygon",
            "coordinates": [
              [
                [
                  74.8867,
                  12.92662
                ],
                [
                  74.89062,
                  12.92662
                ],
                [
                  74.89062,
                  12.93125
                ],
                [
                  74.8867,
                  12.93125
                ],
                [
                  74.8867,
                  12.92662
                ]
              ]
            ]
          },
          "properties": {
            "id": "BLD-E-031",
            "zone_id": "E",
            "height_m": 25.2,
            "floors": 7,
            "usage": "commercial"
          }
        },
        {
          "type": "Feature",
          "geometry": {
            "type": "Polygon",
            "coordinates": [
              [
                [
                  74.8927,
                  12.91828
                ],
                [
                  74.89651,
                  12.91828
                ],
                [
                  74.89651,
                  12.9228
                ],
                [
                  74.8927,
                  12.9228
                ],
                [
                  74.8927,
                  12.91828
                ]
              ]
            ]
          },
          "properties": {
            "id": "BLD-E-032",
            "zone_id": "E",
            "height_m": 19.3,
            "floors": 6,
            "usage": "industrial"
          }
        },
        {
          "type": "Feature",
          "geometry": {
            "type": "Polygon",
            "coordinates": [
              [
                [
                  74.8927,
                  12.92662
                ],
                [
                  74.89543,
                  12.92662
                ],
                [
                  74.89543,
                  12.93086
                ],
                [
                  74.8927,
                  12.93086
                ],
                [
                  74.8927,
                  12.92662
                ]
              ]
            ]
          },
          "properties": {
            "id": "BLD-E-033",
            "zone_id": "E",
            "height_m": 27.9,
            "floors": 8,
            "usage": "commercial"
          }
        }
      ]
    },
    "facilities": {
      "type": "FeatureCollection",
      "features": [
        {
          "type": "Feature",
          "geometry": {
            "type": "Point",
            "coordinates": [
              74.8548,
              12.9127
            ]
          },
          "properties": {
            "id": "FAC-01",
            "name": "Mangaluru District Hospital",
            "kind": "hospital",
            "criticality": 0.95
          }
        },
        {
          "type": "Feature",
          "geometry": {
            "type": "Point",
            "coordinates": [
              74.8748,
              12.9307
            ]
          },
          "properties": {
            "id": "FAC-02",
            "name": "Mangaluru High Ground Evacuation Center",
            "kind": "shelter",
            "criticality": 0.88
          }
        },
        {
          "type": "Feature",
          "geometry": {
            "type": "Point",
            "coordinates": [
              74.8478,
              12.9207
            ]
          },
          "properties": {
            "id": "FAC-03",
            "name": "Mangaluru Maritime Coastguard / Port",
            "kind": "port",
            "criticality": 0.8
          }
        }
      ]
    }
  },
  "meta": {
    "name": "TIDALIS Digital Twin \u2014 Mangaluru",
    "center": [
      74.8598,
      12.9187
    ],
    "base_elevation_m": 31.0,
    "generated_at": "2026-10-08T15:06:35.003084+00:00",
    "zone_count": 5,
    "building_count": 33,
    "road_count": 4,
    "facility_count": 3
  }
}