{
  "type": "FeatureCollection",
  "features": [
    {
      "type": "Feature",
      "geometry": {
        "type": "LineString",
        "coordinates": [
          [
            80.2607,
            13.0747
          ],
          [
            80.2797,
            13.0747
          ]
        ]
      },
      "properties": {
        "id": "RD-01",
        "name": "Chennai Marina Coastal Arterial",
        "elevation_m": 1.8,
        "critical": true
      }
    },
    {
      "type": "Feature",
      "geometry": {
        "type": "LineString",
        "coordinates": [
          [
            80.2607,
            13.0927
          ],
          [
            80.2797,
            13.0927
          ]
        ]
      },
      "properties": {
        "id": "RD-02",
        "name": "Chennai Marina North Link",
        "elevation_m": 4.0,
        "critical": true
      }
    },
    {
      "type": "Feature",
      "geometry": {
        "type": "LineString",
        "coordinates": [
          [
            80.2607,
            13.0747
          ],
          [
            80.2607,
            13.0927
          ]
        ]
      },
      "properties": {
        "id": "RD-03",
        "name": "Chennai Marina Harbor Way",
        "elevation_m": 2.2,
        "critical": false
      }
    },
    {
      "type": "Feature",
      "geometry": {
        "type": "LineString",
        "coordinates": [
          [
            80.2797,
            13.0747
          ],
          [
            80.2957,
            13.0877
          ]
        ]
      },
      "properties": {
        "id": "RD-04",
        "name": "Chennai Marina Inland Highway Egress",
        "elevation_m": 7.2,
        "critical": true
      }
    }
  ]
}