{
  "type": "FeatureCollection",
  "features": [
    {
      "type": "Feature",
      "geometry": {
        "type": "Polygon",
        "coordinates": [
          [
            [
              74.8418,
              12.9037
            ],
            [
              74.8568,
              12.9037
            ],
            [
              74.8568,
              12.9187
            ],
            [
              74.8418,
              12.9187
            ],
            [
              74.8418,
              12.9037
            ]
          ]
        ]
      },
      "properties": {
        "id": "A",
        "name": "Zone A \u00b7 Mangaluru Waterfront",
        "elevation_m": 12.4,
        "drainage_capacity": 0.72,
        "historical_flood_freq": 0.45,
        "imperviousness": 0.68,
        "slope": 2.1,
        "population": 28000,
        "vulnerability": 0.62
      }
    },
    {
      "type": "Feature",
      "geometry": {
        "type": "Polygon",
        "coordinates": [
          [
            [
              74.8598,
              12.9037
            ],
            [
              74.8778,
              12.9037
            ],
            [
              74.8778,
              12.9187
            ],
            [
              74.8598,
              12.9187
            ],
            [
              74.8598,
              12.9037
            ]
          ]
        ]
      },
      "properties": {
        "id": "B",
        "name": "Zone B \u00b7 Mangaluru Lowlands",
        "elevation_m": 9.3,
        "drainage_capacity": 0.58,
        "historical_flood_freq": 0.45,
        "imperviousness": 0.68,
        "slope": 2.1,
        "population": 28000,
        "vulnerability": 0.62
      }
    },
    {
      "type": "Feature",
      "geometry": {
        "type": "Polygon",
        "coordinates": [
          [
            [
              74.8418,
              12.9207
            ],
            [
              74.8568,
              12.9207
            ],
            [
              74.8568,
              12.9387
            ],
            [
              74.8418,
              12.9387
            ],
            [
              74.8418,
              12.9207
            ]
          ]
        ]
      },
      "properties": {
        "id": "C",
        "name": "Zone C \u00b7 Mangaluru Port & Basin",
        "elevation_m": 15.5,
        "drainage_capacity": 0.68,
        "historical_flood_freq": 0.45,
        "imperviousness": 0.68,
        "slope": 2.1,
        "population": 28000,
        "vulnerability": 0.62
      }
    },
    {
      "type": "Feature",
      "geometry": {
        "type": "Polygon",
        "coordinates": [
          [
            [
              74.8598,
              12.9207
            ],
            [
              74.8778,
              12.9207
            ],
            [
              74.8778,
              12.9387
            ],
            [
              74.8598,
              12.9387
            ],
            [
              74.8598,
              12.9207
            ]
          ]
        ]
      },
      "properties": {
        "id": "D",
        "name": "Zone D \u00b7 Mangaluru Ridge / Heights",
        "elevation_m": 55.8,
        "drainage_capacity": 0.88,
        "historical_flood_freq": 0.45,
        "imperviousness": 0.68,
        "slope": 2.1,
        "population": 28000,
        "vulnerability": 0.62
      }
    },
    {
      "type": "Feature",
      "geometry": {
        "type": "Polygon",
        "coordinates": [
          [
            [
              74.8798,
              12.9087
            ],
            [
              74.8978,
              12.9087
            ],
            [
              74.8978,
              12.9337
            ],
            [
              74.8798,
              12.9337
            ],
            [
              74.8798,
              12.9087
            ]
          ]
        ]
      },
      "properties": {
        "id": "E",
        "name": "Zone E \u00b7 Mangaluru Urban Hinterland",
        "elevation_m": 40.3,
        "drainage_capacity": 0.81,
        "historical_flood_freq": 0.45,
        "imperviousness": 0.68,
        "slope": 2.1,
        "population": 28000,
        "vulnerability": 0.62
      }
    }
  ]
}