{
  "type": "FeatureCollection",
  "meta": {
    "zone_id": "goa",
    "name": "Goa Coastal District Real Road Network",
    "road_count": 11
  },
  "features": [
    {
      "type": "Feature",
      "geometry": {
        "type": "LineString",
        "coordinates": [
          [
            73.82,
            15.545
          ],
          [
            73.824,
            15.535
          ],
          [
            73.828,
            15.522
          ],
          [
            73.831,
            15.512
          ]
        ]
      },
      "properties": {
        "id": "RD-GOA-NH66-N",
        "name": "NH-66 North Arterial Corridor (Porvorim \u2013 Guirim)",
        "ref": "NH-66",
        "elevation_m": 8.5,
        "critical": true,
        "lanes": 6,
        "speed_limit_kmh": 80,
        "is_evacuation_corridor": false,
        "classification": "national_highway"
      }
    },
    {
      "type": "Feature",
      "geometry": {
        "type": "LineString",
        "coordinates": [
          [
            73.831,
            15.512
          ],
          [
            73.833,
            15.503
          ],
          [
            73.836,
            15.493
          ],
          [
            73.839,
            15.484
          ]
        ]
      },
      "properties": {
        "id": "RD-GOA-ATAL",
        "name": "Atal Setu / Mandovi River Cable-Stayed Bridge (NH-66)",
        "ref": "NH-66",
        "elevation_m": 15.0,
        "critical": true,
        "lanes": 4,
        "speed_limit_kmh": 60,
        "is_evacuation_corridor": true,
        "classification": "bridge_causeway"
      }
    },
    {
      "type": "Feature",
      "geometry": {
        "type": "LineString",
        "coordinates": [
          [
            73.831,
            15.512
          ],
          [
            73.834,
            15.501
          ],
          [
            73.837,
            15.492
          ],
          [
            73.839,
            15.484
          ]
        ]
      },
      "properties": {
        "id": "RD-GOA-MANDOVI-OLD",
        "name": "Old Mandovi River Twin Bridges (Low-Level Causeway)",
        "ref": "MDR",
        "elevation_m": 3.2,
        "critical": true,
        "lanes": 4,
        "speed_limit_kmh": 40,
        "is_evacuation_corridor": false,
        "classification": "bridge_causeway"
      }
    },
    {
      "type": "Feature",
      "geometry": {
        "type": "LineString",
        "coordinates": [
          [
            73.839,
            15.484
          ],
          [
            73.832,
            15.491
          ],
          [
            73.822,
            15.492
          ],
          [
            73.814,
            15.485
          ],
          [
            73.81,
            15.478
          ]
        ]
      },
      "properties": {
        "id": "RD-GOA-DBMARG",
        "name": "Dayanand Bandodkar Marg (Panaji Waterfront Promenade)",
        "ref": "Promenade",
        "elevation_m": 1.6,
        "critical": false,
        "lanes": 2,
        "speed_limit_kmh": 40,
        "is_evacuation_corridor": false,
        "classification": "coastal_arterial"
      }
    },
    {
      "type": "Feature",
      "geometry": {
        "type": "LineString",
        "coordinates": [
          [
            73.81,
            15.478
          ],
          [
            73.806,
            15.468
          ],
          [
            73.803,
            15.46
          ],
          [
            73.801,
            15.454
          ]
        ]
      },
      "properties": {
        "id": "RD-GOA-MIRAMAR-DP",
        "name": "Miramar \u2013 Dona Paula Coastal Link Road",
        "ref": "MDR",
        "elevation_m": 2.4,
        "critical": false,
        "lanes": 2,
        "speed_limit_kmh": 50,
        "is_evacuation_corridor": false,
        "classification": "coastal_arterial"
      }
    },
    {
      "type": "Feature",
      "geometry": {
        "type": "LineString",
        "coordinates": [
          [
            73.801,
            15.454
          ],
          [
            73.82,
            15.452
          ],
          [
            73.84,
            15.453
          ],
          [
            73.858,
            15.455
          ]
        ]
      },
      "properties": {
        "id": "RD-GOA-DP-BAMBOLIM",
        "name": "Dona Paula \u2013 Goa University \u2013 Bambolim Ridge Arterial",
        "ref": "UDR",
        "elevation_m": 22.0,
        "critical": false,
        "lanes": 4,
        "speed_limit_kmh": 60,
        "is_evacuation_corridor": true,
        "classification": "evacuation_arterial"
      }
    },
    {
      "type": "Feature",
      "geometry": {
        "type": "LineString",
        "coordinates": [
          [
            73.839,
            15.484
          ],
          [
            73.848,
            15.47
          ],
          [
            73.858,
            15.455
          ],
          [
            73.872,
            15.435
          ],
          [
            73.892,
            15.418
          ],
          [
            73.898,
            15.41
          ]
        ]
      },
      "properties": {
        "id": "RD-GOA-NH66-MID",
        "name": "NH-66 Central Spine (Panaji Kadamba \u2013 Bambolim \u2013 Cortalim)",
        "ref": "NH-66",
        "elevation_m": 6.8,
        "critical": true,
        "lanes": 6,
        "speed_limit_kmh": 80,
        "is_evacuation_corridor": false,
        "classification": "national_highway"
      }
    },
    {
      "type": "Feature",
      "geometry": {
        "type": "LineString",
        "coordinates": [
          [
            73.898,
            15.41
          ],
          [
            73.903,
            15.405
          ],
          [
            73.908,
            15.398
          ],
          [
            73.912,
            15.388
          ]
        ]
      },
      "properties": {
        "id": "RD-GOA-ZUARI",
        "name": "New Zuari River Cable-Stayed Bridge (NH-66)",
        "ref": "NH-66",
        "elevation_m": 18.5,
        "critical": true,
        "lanes": 8,
        "speed_limit_kmh": 70,
        "is_evacuation_corridor": true,
        "classification": "bridge_causeway"
      }
    },
    {
      "type": "Feature",
      "geometry": {
        "type": "LineString",
        "coordinates": [
          [
            73.8,
            15.416
          ],
          [
            73.812,
            15.405
          ],
          [
            73.822,
            15.396
          ],
          [
            73.838,
            15.388
          ],
          [
            73.848,
            15.38
          ],
          [
            73.872,
            15.39
          ],
          [
            73.898,
            15.41
          ]
        ]
      },
      "properties": {
        "id": "RD-GOA-NH366-VASCO",
        "name": "NH-366 Vasco Port & Dabolim Airport Highway Corridor",
        "ref": "NH-366",
        "elevation_m": 4.5,
        "critical": true,
        "lanes": 4,
        "speed_limit_kmh": 70,
        "is_evacuation_corridor": false,
        "classification": "expressway"
      }
    },
    {
      "type": "Feature",
      "geometry": {
        "type": "LineString",
        "coordinates": [
          [
            73.839,
            15.484
          ],
          [
            73.865,
            15.498
          ],
          [
            73.905,
            15.503
          ],
          [
            73.945,
            15.485
          ],
          [
            73.978,
            15.445
          ],
          [
            74.015,
            15.405
          ]
        ]
      },
      "properties": {
        "id": "RD-GOA-NH748-EVAC",
        "name": "NH-748 Panaji \u2013 Old Goa \u2013 Ponda High-Ground Evacuation Expressway",
        "ref": "NH-748",
        "elevation_m": 24.0,
        "critical": true,
        "lanes": 4,
        "speed_limit_kmh": 80,
        "is_evacuation_corridor": true,
        "classification": "evacuation_arterial"
      }
    },
    {
      "type": "Feature",
      "geometry": {
        "type": "LineString",
        "coordinates": [
          [
            73.912,
            15.388
          ],
          [
            73.922,
            15.365
          ],
          [
            73.935,
            15.335
          ],
          [
            73.955,
            15.3
          ],
          [
            73.97,
            15.28
          ]
        ]
      },
      "properties": {
        "id": "RD-GOA-NH66-S",
        "name": "NH-66 South Connector (Zuari \u2013 Verna \u2013 Margao)",
        "ref": "NH-66",
        "elevation_m": 12.0,
        "critical": true,
        "lanes": 6,
        "speed_limit_kmh": 80,
        "is_evacuation_corridor": false,
        "classification": "national_highway"
      }
    }
  ]
}