{
  "type": "FeatureCollection",
  "features": [
    {
      "type": "Feature",
      "geometry": {
        "type": "Polygon",
        "coordinates": [
          [
            [
              73.785,
              15.535
            ],
            [
              73.77,
              15.505
            ],
            [
              73.8,
              15.485
            ],
            [
              73.805,
              15.46
            ],
            [
              73.83,
              15.42
            ],
            [
              73.79,
              15.405
            ],
            [
              73.82,
              15.37
            ],
            [
              73.85,
              15.34
            ],
            [
              73.89,
              15.28
            ],
            [
              73.92,
              15.22
            ],
            [
              73.98,
              15.24
            ],
            [
              74.015,
              15.31
            ],
            [
              73.995,
              15.4
            ],
            [
              74.01,
              15.47
            ],
            [
              73.96,
              15.53
            ],
            [
              73.88,
              15.54
            ],
            [
              73.785,
              15.535
            ]
          ]
        ]
      },
      "properties": {
        "id": "goa",
        "name": "Goa Coastal District (Miramar & Mormugao)",
        "admin_level": "district",
        "bbox": [
          73.76,
          15.22,
          74.02,
          15.54
        ]
      }
    },
    {
      "type": "Feature",
      "geometry": {
        "type": "LineString",
        "coordinates": [
          [
            73.785,
            15.535
          ],
          [
            73.77,
            15.505
          ],
          [
            73.8,
            15.485
          ],
          [
            73.805,
            15.46
          ],
          [
            73.83,
            15.42
          ],
          [
            73.79,
            15.405
          ],
          [
            73.82,
            15.37
          ],
          [
            73.85,
            15.34
          ],
          [
            73.89,
            15.28
          ],
          [
            73.92,
            15.22
          ]
        ]
      },
      "properties": {
        "id": "goa-coastline",
        "name": "Goa Coastal District (Miramar & Mormugao) Natural Coastline"
      }
    }
  ],
  "meta": {
    "zone_id": "goa",
    "name": "Goa Coastal District (Miramar & Mormugao)",
    "bbox": [
      73.76,
      15.22,
      74.02,
      15.54
    ]
  }
}